[{"OBJECT_NAME":"ONEWEB-0474","OBJECT_ID":"2022-012AJ","EPOCH":"2026-03-09T23:32:06.894240","MEAN_MOTION":13.10371854,"ECCENTRICITY":0.00017292,"INCLINATION":87.878,"RA_OF_ASC_NODE":56.0058,"ARG_OF_PERICENTER":95.0915,"MEAN_ANOMALY":265.0409,"EPHEMERIS_TYPE":0,"CLASSIFICATION_TYPE":"U","NORAD_CAT_ID":51654,"ELEMENT_SET_NO":999,"REV_AT_EPOCH":19630,"BSTAR":-0.0018287936,"MEAN_MOTION_DOT":-6.26e-6,"MEAN_MOTION_DDOT":0},{"OBJECT_NAME":"COSMOS 2499 DEB","OBJECT_ID":"2014-028AR","EPOCH":"2026-03-08T16:30:44.028576","MEAN_MOTION":12.83466511,"ECCENTRICITY":0.02314502,"INCLINATION":82.4562,"RA_OF_ASC_NODE":320.1068,"ARG_OF_PERICENTER":234.9243,"MEAN_ANOMALY":122.9961,"EPHEMERIS_TYPE":0,"CLASSIFICATION_TYPE":"U","NORAD_CAT_ID":55729,"ELEMENT_SET_NO":999,"REV_AT_EPOCH":14716,"BSTAR":0.00025511886,"MEAN_MOTION_DOT":7.8e-7,"MEAN_MOTION_DDOT":0}]
